KUIPER-00594            
1 69279U 26118N   26163.11379199  .00024338  00000+0  63827-3 0  9997
2 69279  51.8718  77.6787 0001056  76.4111 283.6994 15.38526309  3207
KUIPER-00595            
1 69280U 26118P   26163.24556479  .00026117  00000+0  68621-3 0  9995
2 69280  51.8710  77.0639 0001951 121.5462 238.5716 15.38426539  3256
KUIPER-00596            
1 69281U 26118Q   26163.20407681  .00037346  00000+0  10715-2 0  9998
2 69281  51.8553  77.5247 0011691 164.3866 195.7482 15.35447678  3211
KUIPER-00597            
1 69282U 26118R   26163.19221197  .00015127  00000+0  42221-3 0  9994
2 69282  51.8645  77.4569 0007123 151.9047 208.2325 15.36912343  3211
KUIPER-00599            
1 69283U 26118S   26163.25547955  .00022782  00000+0  62275-3 0  9991
2 69283  51.8689  77.1300 0006412 145.5391 214.6013 15.37268016  3229
KUIPER-00600            
1 69284U 26118T   26163.19547523  .00017208  00000+0  48326-3 0  9994
2 69284  51.8636  77.4770 0008969 155.0179 205.1243 15.36604308  3211
KUIPER-00601            
1 69285U 26118U   26163.25289156  .00008841  00000+0  24644-3 0  9997
2 69285  51.8700  77.1121 0004857 137.1197 223.0169 15.37546387  3224
KUIPER-00602            
1 69286U 26118V   26163.24869390  .00027332  00000+0  72617-3 0  9990
2 69286  51.8700  77.0870 0003057 127.9603 232.1661 15.38056316  3222
KUIPER-00603            
1 69287U 26118W   26163.25391757  .00022422  00000+0  60965-3 0  9997
2 69287  51.8668  77.1202 0005669 142.3397 217.7988 15.37447972  3220
KUIPER-00605            
1 69288U 26118X   26163.25800943  .00022864  00000+0  63033-3 0  9999
2 69288  51.8658  77.1466 0007696 147.6246 212.5214 15.36993691  3223
KUIPER-00606            
1 69289U 26118Y   26163.25187371  .00008318  00000+0  23178-3 0  9997
2 69289  51.8691  77.1062 0004788 133.1837 226.9551 15.37645462  3222
KUIPER-00607            
1 69290U 26118Z   26163.25467068  .00024676  00000+0  67237-3 0  9992
2 69290  51.8677  77.1250 0006221 143.1830 216.9585 15.37320588  3220
KUIPER-00608            
1 69291U 26118AA  26163.19946903 -.00025330  00000+0 -70997-3 0  9993
2 69291  51.8604  77.5006 0008995 155.8549 204.2861 15.35652653  3216
KUIPER-00610            
1 69292U 26118AB  26163.24722007  .00029939  00000+0  78903-3 0  9999
2 69292  51.8718  77.0726 0002800 119.4279 240.6987 15.38257793  3225
KUIPER-00613            
1 69293U 26118AC  26163.20324189  .00014068  00000+0  41622-3 0  9990
2 69293  51.8629  77.5253 0010333 167.2426 192.8823 15.35122057  3219
KUIPER-00618            
1 69294U 26118AD  26163.24414602  .00019392  00000+0  51137-3 0  9992
2 69294  51.8719  77.0510 0001838  79.2414 280.8780 15.38501535  3226
KUIPER-00620            
1 69295U 26118AE  26163.24651908  .00025454  00000+0  67139-3 0  9990
2 69295  51.8715  77.0687 0003015 106.7855 253.3463 15.38319678  3220
STARLINK-37501          
1 69296U 26119A   26163.14608769  .00237280  00000+0  12501-2 0  9992
2 69296  97.2828 188.6920 0000540  25.0602 335.0692 15.80026485  3244
STARLINK-37496          
1 69297U 26119B   26163.14656722  .00324422  00000+0  16899-2 0  9994
2 69297  97.2828 188.6923 0000949 104.4485 255.6889 15.80049737  3242
STARLINK-37519          
1 69298U 26119C   26163.14173059  .00324058  00000+0  16308-2 0  9992
2 69298  97.2836 188.6989 0001615 123.4055 236.7368 15.80811442  3241
STARLINK-37455          
1 69299U 26119D   26163.14487335  .00243973  00000+0  12837-2 0  9997
2 69299  97.2832 188.6948 0001194  77.9113 282.2289 15.80037103  3245
STARLINK-37456          
1 69300U 26119E   26163.14088586  .00069346  00000+0  35974-3 0  9993
2 69300  97.2833 188.6998 0001100  91.2713 268.8681 15.80825965  3243
STARLINK-37630          
1 69301U 26119F   26163.25003472 -.02598112  00000+0 -23821-1 0  9995
2 69301  97.2836 188.7960 0001623  90.1560 129.7614 15.71072848  3251
STARLINK-37804          
1 69302U 26119G   26163.25003472 -.02629388  00000+0 -23736-1 0  9991
2 69302  97.2835 188.7986 0001861  84.0653 139.5180 15.71480967  3250
STARLINK-37730          
1 69303U 26119H   26163.13866144  .00236890  00000+0  11985-2 0  9994
2 69303  97.2832 188.7029 0000806  89.5038 270.6323 15.80918834  3245
STARLINK-37731          
1 69304U 26119J   26163.25003472 -.02639341  00000+0 -25029-1 0  9990
2 69304  97.2835 188.8021 0001617  92.1389 141.0992 15.70330083  3259
STARLINK-37734          
1 69305U 26119K   26163.13761233  .00230667  00000+0  11681-2 0  9998
2 69305  97.2832 188.7045 0000812 102.0241 258.1118 15.80914668  3243
STARLINK-37701          
1 69306U 26119L   26163.13734291  .00198188  00000+0  10079-2 0  9994
2 69306  97.2833 188.7042 0000989  90.2946 269.8436 15.80907148  3244
STARLINK-37732          
1 69307U 26119M   26163.13692571  .00221361  00000+0  11226-2 0  9994
2 69307  97.2834 188.7057 0001045 101.4184 258.7202 15.80907114  3246
STARLINK-37689          
1 69308U 26119N   26163.25003472 -.02597429  00000+0 -25079-1 0  9999
2 69308  97.2837 188.8087 0001656  95.2373 154.3568 15.69839361  3254
