OBJECT_NAME,OBJECT_ID,EPOCH,MEAN_MOTION,ECCENTRICITY,INCLINATION,RA_OF_ASC_NODE,ARG_OF_PERICENTER,MEAN_ANOMALY,EPHEMERIS_TYPE,CLASSIFICATION_TYPE,NORAD_CAT_ID,ELEMENT_SET_NO,REV_AT_EPOCH,BSTAR,MEAN_MOTION_DOT,MEAN_MOTION_DDOT
KUIPER-00594,2026-118N,2026-06-12T02:43:51.627936,15.38526309,.00010568,51.8718,77.6787,76.4111,283.6994,0,U,69279,999,320,.63826582E-3,.24338E-3,0
KUIPER-00595,2026-118P,2026-06-12T05:53:36.797856,15.38426539,.00019511,51.8710,77.0639,121.5462,238.5716,0,U,69280,999,325,.68620826E-3,.26117E-3,0
KUIPER-00596,2026-118Q,2026-06-12T04:53:52.236384,15.35447678,.0011691,51.8553,77.5247,164.3866,195.7482,0,U,69281,999,321,.10714872E-2,.37346E-3,0
KUIPER-00597,2026-118R,2026-06-12T04:36:47.114208,15.36912343,.00071237,51.8645,77.4569,151.9047,208.2325,0,U,69282,999,321,.42220796E-3,.15127E-3,0
KUIPER-00599,2026-118S,2026-06-12T06:07:53.433120,15.37268016,.00064124,51.8689,77.1300,145.5391,214.6013,0,U,69283,999,322,.62275125E-3,.22782E-3,0
KUIPER-00600,2026-118T,2026-06-12T04:41:29.059872,15.36604308,.00089692,51.8636,77.4770,155.0179,205.1243,0,U,69284,999,321,.48325784E-3,.17208E-3,0
KUIPER-00601,2026-118U,2026-06-12T06:04:09.830784,15.37546387,.00048576,51.8700,77.1121,137.1197,223.0169,0,U,69285,999,322,.24644234E-3,.8841E-4,0
KUIPER-00602,2026-118V,2026-06-12T05:58:07.152960,15.38056316,.00030571,51.8700,77.0870,127.9603,232.1661,0,U,69286,999,322,.72617369E-3,.27332E-3,0
KUIPER-00603,2026-118W,2026-06-12T06:05:38.478048,15.37447972,.0005669,51.8668,77.1202,142.3397,217.7988,0,U,69287,999,322,.60964963E-3,.22422E-3,0
KUIPER-00605,2026-118X,2026-06-12T06:11:32.014752,15.36993691,.00076968,51.8658,77.1466,147.6246,212.5214,0,U,69288,999,322,.63033436E-3,.22864E-3,0
KUIPER-00606,2026-118Y,2026-06-12T06:02:41.888544,15.37645462,.00047881,51.8691,77.1062,133.1837,226.9551,0,U,69289,999,322,.23178482E-3,.8318E-4,0
KUIPER-00607,2026-118Z,2026-06-12T06:06:43.546752,15.37320588,.00062218,51.8677,77.1250,143.1830,216.9585,0,U,69290,999,322,.67237229E-3,.24676E-3,0
KUIPER-00608,2026-118AA,2026-06-12T04:47:14.124192,15.35652653,.00089955,51.8604,77.5006,155.8549,204.2861,0,U,69291,999,321,-.70997111E-3,-.2533E-3,0
KUIPER-00610,2026-118AB,2026-06-12T05:55:59.814048,15.38257793,.00028002,51.8718,77.0726,119.4279,240.6987,0,U,69292,999,322,.7890273E-3,.29939E-3,0
KUIPER-00613,2026-118AC,2026-06-12T04:52:40.099296,15.35122057,.00103334,51.8629,77.5253,167.2426,192.8823,0,U,69293,999,321,.41621619E-3,.14068E-3,0
KUIPER-00618,2026-118AD,2026-06-12T05:51:34.216128,15.38501535,.0001838,51.8719,77.0510,79.2414,280.8780,0,U,69294,999,322,.511369E-3,.19392E-3,0
KUIPER-00620,2026-118AE,2026-06-12T05:54:59.248512,15.38319678,.00030151,51.8715,77.0687,106.7855,253.3463,0,U,69295,999,322,.67139175E-3,.25454E-3,0
STARLINK-37501,2026-119A,2026-06-12T03:30:21.976416,15.80026485,.00005402,97.2828,188.6920,25.0602,335.0692,0,U,69296,999,324,.12500966E-2,.23728E-2,0
STARLINK-37496,2026-119B,2026-06-12T03:31:03.407808,15.80049737,.00009499,97.2828,188.6923,104.4485,255.6889,0,U,69297,999,324,.16899344E-2,.324422E-2,0
STARLINK-37519,2026-119C,2026-06-12T03:24:05.522976,15.80811442,.00016159,97.2836,188.6989,123.4055,236.7368,0,U,69298,999,324,.16308138E-2,.324058E-2,0
STARLINK-37455,2026-119D,2026-06-12T03:28:37.057440,15.80037103,.00011941,97.2832,188.6948,77.9113,282.2289,0,U,69299,999,324,.12837499E-2,.243973E-2,0
STARLINK-37456,2026-119E,2026-06-12T03:22:52.538304,15.80825965,.00011005,97.2833,188.6998,91.2713,268.8681,0,U,69300,999,324,.35974412E-3,.69346E-3,0
STARLINK-37630,2026-119F,2026-06-12T06:00:02.999808,15.71072848,.00016234,97.2836,188.7960,90.1560,129.7614,0,U,69301,999,325,-.23821266E-1,-.2598112E-1,0
STARLINK-37804,2026-119G,2026-06-12T06:00:02.999808,15.71480967,.00018616,97.2835,188.7986,84.0653,139.5180,0,U,69302,999,325,-.23736006E-1,-.2629388E-1,0
STARLINK-37730,2026-119H,2026-06-12T03:19:40.348416,15.80918834,.00008065,97.2832,188.7029,89.5038,270.6323,0,U,69303,999,324,.11985457E-2,.23689E-2,0
STARLINK-37731,2026-119J,2026-06-12T06:00:02.999808,15.70330083,.00016179,97.2835,188.8021,92.1389,141.0992,0,U,69304,999,325,-.25028812E-1,-.2639341E-1,0
STARLINK-37734,2026-119K,2026-06-12T03:18:09.705312,15.80914668,.00008121,97.2832,188.7045,102.0241,258.1118,0,U,69305,999,324,.11681425E-2,.230667E-2,0
STARLINK-37701,2026-119L,2026-06-12T03:17:46.427424,15.80907148,.00009896,97.2833,188.7042,90.2946,269.8436,0,U,69306,999,324,.10078918E-2,.198188E-2,0
STARLINK-37732,2026-119M,2026-06-12T03:17:10.381344,15.80907114,.0001045,97.2834,188.7057,101.4184,258.7202,0,U,69307,999,324,.11226457E-2,.221361E-2,0
STARLINK-37689,2026-119N,2026-06-12T06:00:02.999808,15.69839361,.00016567,97.2837,188.8087,95.2373,154.3568,0,U,69308,999,325,-.25079492E-1,-.2597429E-1,0
